[{"OBJECT_NAME":"STARLINK-30602","OBJECT_ID":"2023-160G","EPOCH":"2026-03-09T01:02:16.046592","MEAN_MOTION":15.22911342,"ECCENTRICITY":8.15e-5,"INCLINATION":43.0026,"RA_OF_ASC_NODE":81.8046,"ARG_OF_PERICENTER":268.3637,"MEAN_ANOMALY":91.712,"EPHEMERIS_TYPE":0,"CLASSIFICATION_TYPE":"U","NORAD_CAT_ID":58081,"ELEMENT_SET_NO":999,"REV_AT_EPOCH":13284,"BSTAR":0.00020841055,"MEAN_MOTION_DOT":4.737e-5,"MEAN_MOTION_DDOT":0},{"OBJECT_NAME":"TRANSPORTER-14 OBJECT AE","OBJECT_ID":"2025-135AE","EPOCH":"2026-03-09T20:11:29.488128","MEAN_MOTION":15.24010322,"ECCENTRICITY":0.00026151,"INCLINATION":97.4617,"RA_OF_ASC_NODE":185.7106,"ARG_OF_PERICENTER":72.7943,"MEAN_ANOMALY":287.358,"EPHEMERIS_TYPE":0,"CLASSIFICATION_TYPE":"U","NORAD_CAT_ID":64556,"ELEMENT_SET_NO":999,"REV_AT_EPOCH":3980,"BSTAR":0.00048718914,"MEAN_MOTION_DOT":0.00011742,"MEAN_MOTION_DDOT":0}]
