STARLINK-30602          
1 58081U 23160G   26068.04324128  .00004737  00000+0  20841-3 0  9998
2 58081  43.0026  81.8046 0000815 268.3637  91.7120 15.22911342132843
TRANSPORTER-14 OBJECT AE
1 64556U 25135AE  26068.84131351  .00011742  00000+0  48719-3 0  9996
2 64556  97.4617 185.7106 0002615  72.7943 287.3580 15.24010321 39808
